CCSDS_OMM_VERS = 2.0
CREATION_DATE  = 
ORIGINATOR     = 

OBJECT_NAME    = ATLAS CENTAUR R/B
OBJECT_ID      = 1972-065B
CENTER_NAME    = EARTH
REF_FRAME      = TEME
TIME_SYSTEM    = UTC
MEAN_ELEMENT_THEORY = SGP/SGP4

EPOCH          = 2026-01-01T07:47:52.952352
MEAN_MOTION    = 14.77470673
ECCENTRICITY   = .0033689
INCLINATION    = 35.0029
RA_OF_ASC_NODE = 340.4695
ARG_OF_PERICENTER = 164.6858
MEAN_ANOMALY   = 195.4869

EPHEMERIS_TYPE = 0
CLASSIFICATION_TYPE = U
NORAD_CAT_ID   = 6155
ELEMENT_SET_NO = 999
REV_AT_EPOCH   = 83129
BSTAR          = .32763E-3
MEAN_MOTION_DOT = .2373E-4
MEAN_MOTION_DDOT = 0

CCSDS_OMM_VERS = 2.0
CREATION_DATE  = 
ORIGINATOR     = 

OBJECT_NAME    = SL-8 R/B
OBJECT_ID      = 1975-112B
CENTER_NAME    = EARTH
REF_FRAME      = TEME
TIME_SYSTEM    = UTC
MEAN_ELEMENT_THEORY = SGP/SGP4

EPOCH          = 2026-01-01T19:04:29.460288
MEAN_MOTION    = 14.38161798
ECCENTRICITY   = .0016721
INCLINATION    = 74.0607
RA_OF_ASC_NODE = 141.9694
ARG_OF_PERICENTER = 251.4184
MEAN_ANOMALY   = 108.5154

EPHEMERIS_TYPE = 0
CLASSIFICATION_TYPE = U
NORAD_CAT_ID   = 8459
ELEMENT_SET_NO = 999
REV_AT_EPOCH   = 62225
BSTAR          = .21681E-3
MEAN_MOTION_DOT = .633E-5
MEAN_MOTION_DDOT = 0

CCSDS_OMM_VERS = 2.0
CREATION_DATE  = 
ORIGINATOR     = 

OBJECT_NAME    = SL-3 R/B
OBJECT_ID      = 1977-057B
CENTER_NAME    = EARTH
REF_FRAME      = TEME
TIME_SYSTEM    = UTC
MEAN_ELEMENT_THEORY = SGP/SGP4

EPOCH          = 2026-01-01T19:01:10.641792
MEAN_MOTION    = 15.43499905
ECCENTRICITY   = .0007778
INCLINATION    = 97.5685
RA_OF_ASC_NODE = 170.9098
ARG_OF_PERICENTER = 156.1426
MEAN_ANOMALY   = 204.0183

EPHEMERIS_TYPE = 0
CLASSIFICATION_TYPE = U
NORAD_CAT_ID   = 10114
ELEMENT_SET_NO = 999
REV_AT_EPOCH   = 65800
BSTAR          = .44569E-3
MEAN_MOTION_DOT = .19929E-3
MEAN_MOTION_DDOT = 0

CCSDS_OMM_VERS = 2.0
CREATION_DATE  = 
ORIGINATOR     = 

OBJECT_NAME    = SEASAT 1
OBJECT_ID      = 1978-064A
CENTER_NAME    = EARTH
REF_FRAME      = TEME
TIME_SYSTEM    = UTC
MEAN_ELEMENT_THEORY = SGP/SGP4

EPOCH          = 2026-01-01T17:50:33.331776
MEAN_MOTION    = 14.46088328
ECCENTRICITY   = .0001248
INCLINATION    = 108.0141
RA_OF_ASC_NODE = 345.0044
ARG_OF_PERICENTER = 260.9330
MEAN_ANOMALY   = 99.1674

EPHEMERIS_TYPE = 0
CLASSIFICATION_TYPE = U
NORAD_CAT_ID   = 10967
ELEMENT_SET_NO = 999
REV_AT_EPOCH   = 49683
BSTAR          = .29756E-3
MEAN_MOTION_DOT = .926E-5
MEAN_MOTION_DDOT = 0

CCSDS_OMM_VERS = 2.0
CREATION_DATE  = 
ORIGINATOR     = 

OBJECT_NAME    = SL-14 R/B
OBJECT_ID      = 1979-011B
CENTER_NAME    = EARTH
REF_FRAME      = TEME
TIME_SYSTEM    = UTC
MEAN_ELEMENT_THEORY = SGP/SGP4

EPOCH          = 2026-01-01T12:11:52.346400
MEAN_MOTION    = 14.91800967
ECCENTRICITY   = .0014672
INCLINATION    = 82.5243
RA_OF_ASC_NODE = 160.2954
ARG_OF_PERICENTER = 283.3866
MEAN_ANOMALY   = 76.5718

EPHEMERIS_TYPE = 0
CLASSIFICATION_TYPE = U
NORAD_CAT_ID   = 11267
ELEMENT_SET_NO = 999
REV_AT_EPOCH   = 51876
BSTAR          = .1239E-3
MEAN_MOTION_DOT = .1276E-4
MEAN_MOTION_DDOT = 0

CCSDS_OMM_VERS = 2.0
CREATION_DATE  = 
ORIGINATOR     = 

OBJECT_NAME    = SL-8 R/B
OBJECT_ID      = 1979-089B
CENTER_NAME    = EARTH
REF_FRAME      = TEME
TIME_SYSTEM    = UTC
MEAN_ELEMENT_THEORY = SGP/SGP4

EPOCH          = 2026-01-01T17:50:17.200896
MEAN_MOTION    = 14.42297363
ECCENTRICITY   = .0014934
INCLINATION    = 74.0673
RA_OF_ASC_NODE = 214.9567
ARG_OF_PERICENTER = 41.3268
MEAN_ANOMALY   = 318.9016

EPHEMERIS_TYPE = 0
CLASSIFICATION_TYPE = U
NORAD_CAT_ID   = 11574
ELEMENT_SET_NO = 999
REV_AT_EPOCH   = 42645
BSTAR          = .14093E-3
MEAN_MOTION_DOT = .439E-5
MEAN_MOTION_DDOT = 0

CCSDS_OMM_VERS = 2.0
CREATION_DATE  = 
ORIGINATOR     = 

OBJECT_NAME    = SL-14 R/B
OBJECT_ID      = 1980-005B
CENTER_NAME    = EARTH
REF_FRAME      = TEME
TIME_SYSTEM    = UTC
MEAN_ELEMENT_THEORY = SGP/SGP4

EPOCH          = 2026-01-01T11:27:10.168128
MEAN_MOTION    = 14.90820285
ECCENTRICITY   = .001661
INCLINATION    = 82.5139
RA_OF_ASC_NODE = 10.9777
ARG_OF_PERICENTER = 32.6981
MEAN_ANOMALY   = 327.5263

EPHEMERIS_TYPE = 0
CLASSIFICATION_TYPE = U
NORAD_CAT_ID   = 11672
ELEMENT_SET_NO = 999
REV_AT_EPOCH   = 46647
BSTAR          = .11794E-3
MEAN_MOTION_DOT = .1188E-4
MEAN_MOTION_DDOT = 0

CCSDS_OMM_VERS = 2.0
CREATION_DATE  = 
ORIGINATOR     = 

OBJECT_NAME    = SL-8 R/B
OBJECT_ID      = 1981-003B
CENTER_NAME    = EARTH
REF_FRAME      = TEME
TIME_SYSTEM    = UTC
MEAN_ELEMENT_THEORY = SGP/SGP4

EPOCH          = 2026-01-01T10:53:17.901024
MEAN_MOTION    = 15.07771488
ECCENTRICITY   = .0275985
INCLINATION    = 82.9362
RA_OF_ASC_NODE = 352.0630
ARG_OF_PERICENTER = 52.6412
MEAN_ANOMALY   = 309.9610

EPHEMERIS_TYPE = 0
CLASSIFICATION_TYPE = U
NORAD_CAT_ID   = 12139
ELEMENT_SET_NO = 999
REV_AT_EPOCH   = 30453
BSTAR          = .78163E-3
MEAN_MOTION_DOT = .29591E-3
MEAN_MOTION_DDOT = 0

CCSDS_OMM_VERS = 2.0
CREATION_DATE  = 
ORIGINATOR     = 

OBJECT_NAME    = SL-3 R/B
OBJECT_ID      = 1981-046B
CENTER_NAME    = EARTH
REF_FRAME      = TEME
TIME_SYSTEM    = UTC
MEAN_ELEMENT_THEORY = SGP/SGP4

EPOCH          = 2026-01-01T18:34:54.525216
MEAN_MOTION    = 15.40094184
ECCENTRICITY   = .0017964
INCLINATION    = 81.2316
RA_OF_ASC_NODE = 9.9616
ARG_OF_PERICENTER = 250.1418
MEAN_ANOMALY   = 109.7888

EPHEMERIS_TYPE = 0
CLASSIFICATION_TYPE = U
NORAD_CAT_ID   = 12465
ELEMENT_SET_NO = 999
REV_AT_EPOCH   = 42812
BSTAR          = .45972E-3
MEAN_MOTION_DOT = .18547E-3
MEAN_MOTION_DDOT = 0

CCSDS_OMM_VERS = 2.0
CREATION_DATE  = 
ORIGINATOR     = 

OBJECT_NAME    = SL-3 R/B
OBJECT_ID      = 1981-103B
CENTER_NAME    = EARTH
REF_FRAME      = TEME
TIME_SYSTEM    = UTC
MEAN_ELEMENT_THEORY = SGP/SGP4

EPOCH          = 2026-01-01T19:11:02.398848
MEAN_MOTION    = 15.20513582
ECCENTRICITY   = .0013535
INCLINATION    = 81.1606
RA_OF_ASC_NODE = 291.8577
ARG_OF_PERICENTER = 144.6124
MEAN_ANOMALY   = 215.6008

EPHEMERIS_TYPE = 0
CLASSIFICATION_TYPE = U
NORAD_CAT_ID   = 12904
ELEMENT_SET_NO = 999
REV_AT_EPOCH   = 96306
BSTAR          = .49198E-3
MEAN_MOTION_DOT = .10809E-3
MEAN_MOTION_DDOT = 0

CCSDS_OMM_VERS = 2.0
CREATION_DATE  = 
ORIGINATOR     = 

OBJECT_NAME    = SL-3 R/B
OBJECT_ID      = 1982-013B
CENTER_NAME    = EARTH
REF_FRAME      = TEME
TIME_SYSTEM    = UTC
MEAN_ELEMENT_THEORY = SGP/SGP4

EPOCH          = 2026-01-01T18:31:25.287744
MEAN_MOTION    = 15.21288903
ECCENTRICITY   = .00237
INCLINATION    = 81.1742
RA_OF_ASC_NODE = 239.1598
ARG_OF_PERICENTER = 46.6648
MEAN_ANOMALY   = 313.6553

EPHEMERIS_TYPE = 0
CLASSIFICATION_TYPE = U
NORAD_CAT_ID   = 13068
ELEMENT_SET_NO = 999
REV_AT_EPOCH   = 39417
BSTAR          = .31173E-3
MEAN_MOTION_DOT = .7049E-4
MEAN_MOTION_DDOT = 0

CCSDS_OMM_VERS = 2.0
CREATION_DATE  = 
ORIGINATOR     = 

OBJECT_NAME    = SL-3 R/B
OBJECT_ID      = 1982-039B
CENTER_NAME    = EARTH
REF_FRAME      = TEME
TIME_SYSTEM    = UTC
MEAN_ELEMENT_THEORY = SGP/SGP4

EPOCH          = 2026-01-01T18:57:02.534688
MEAN_MOTION    = 15.09664365
ECCENTRICITY   = .0029549
INCLINATION    = 81.1704
RA_OF_ASC_NODE = 293.0278
ARG_OF_PERICENTER = 184.2172
MEAN_ANOMALY   = 175.8809

EPHEMERIS_TYPE = 0
CLASSIFICATION_TYPE = U
NORAD_CAT_ID   = 13154
ELEMENT_SET_NO = 999
REV_AT_EPOCH   = 37154
BSTAR          = .34151E-3
MEAN_MOTION_DOT = .5576E-4
MEAN_MOTION_DDOT = 0

