ATLAS CENTAUR R/B       
1 06155U 72065B   26001.32491843  .00002373  00000+0  32763-3 0  9998
2 06155  35.0029 340.4695 0033689 164.6858 195.4869 14.77470673831297
SL-8 R/B                
1 08459U 75112B   26001.79478542  .00000633  00000+0  21681-3 0  9999
2 08459  74.0607 141.9694 0016721 251.4184 108.5154 14.38161798622257
SL-3 R/B                
1 10114U 77057B   26001.79248428  .00019929  00000+0  44569-3 0  9996
2 10114  97.5685 170.9098 0007778 156.1426 204.0183 15.43499905658003
SEASAT 1                
1 10967U 78064A   26001.74344134  .00000926  00000+0  29756-3 0  9995
2 10967 108.0141 345.0044 0001248 260.9330  99.1674 14.46088328496838
SL-14 R/B               
1 11267U 79011B   26001.50824475  .00001276  00000+0  12390-3 0  9992
2 11267  82.5243 160.2954 0014672 283.3866  76.5718 14.91800967518762
SL-8 R/B                
1 11574U 79089B   26001.74325464  .00000439  00000+0  14093-3 0  9990
2 11574  74.0673 214.9567 0014934  41.3268 318.9016 14.42297363426456
SL-14 R/B               
1 11672U 80005B   26001.47720102  .00001188  00000+0  11794-3 0  9994
2 11672  82.5139  10.9777 0016610  32.6981 327.5263 14.90820285466475
SL-8 R/B                
1 12139U 81003B   26001.45367941  .00029591  00000+0  78163-3 0  9999
2 12139  82.9362 352.0630 0275985  52.6412 309.9610 15.07771488304534
SL-3 R/B                
1 12465U 81046B   26001.77424219  .00018547  00000+0  45972-3 0  9996
2 12465  81.2316   9.9616 0017964 250.1418 109.7888 15.40094184428124
SL-3 R/B                
1 12904U 81103B   26001.79933332  .00010809  00000+0  49198-3 0  9998
2 12904  81.1606 291.8577 0013535 144.6124 215.6008 15.20513582963066
SL-3 R/B                
1 13068U 82013B   26001.77182046  .00007049  00000+0  31173-3 0  9993
2 13068  81.1742 239.1598 0023700  46.6648 313.6553 15.21288903394175
SL-3 R/B                
1 13154U 82039B   26001.78961267  .00005576  00000+0  34151-3 0  9990
2 13154  81.1704 293.0278 0029549 184.2172 175.8809 15.09664365371545
